MMSATS-1                
1 47976U 98067SJ  21131.49070192  .00001811  00000-0  40256-4 0  9995
2 47976  51.6441 164.0724 0002268 328.9785  31.1049 15.49562588  7817
BCCSAT 1                
1 48041U 21022AK  21131.49782104  .00001408  00000-0  99362-4 0  9993
2 48041  97.5616  34.4527 0017658  69.8897 104.4917 15.06444914  6282
